ONEWEB-0228             
1 48780U 21045P   24208.03346207  .00000002  00000+0 -27766-4 0  9994
2 48780  87.9015  36.7141 0001677  84.7615 275.3707 13.15071185153454
